[{"OBJECT_NAME":"SKYSAT-A","OBJECT_ID":"2013-066C","EPOCH":"2026-03-03T22:41:14.914464","MEAN_MOTION":15.12303465,"ECCENTRICITY":0.0020548,"INCLINATION":97.3965,"RA_OF_ASC_NODE":115.667,"ARG_OF_PERICENTER":321.6008,"MEAN_ANOMALY":38.3759,"EPHEMERIS_TYPE":0,"CLASSIFICATION_TYPE":"U","NORAD_CAT_ID":39418,"ELEMENT_SET_NO":999,"REV_AT_EPOCH":67257,"BSTAR":0.00030841118,"MEAN_MOTION_DOT":5.303e-5,"MEAN_MOTION_DDOT":0},{"OBJECT_NAME":"SKYSAT-B","OBJECT_ID":"2014-037D","EPOCH":"2026-03-03T19:27:36.316800","MEAN_MOTION":14.87697185,"ECCENTRICITY":0.00042017,"INCLINATION":98.372,"RA_OF_ASC_NODE":15.8691,"ARG_OF_PERICENTER":258.6689,"MEAN_ANOMALY":101.4054,"EPHEMERIS_TYPE":0,"CLASSIFICATION_TYPE":"U","NORAD_CAT_ID":40072,"ELEMENT_SET_NO":999,"REV_AT_EPOCH":63029,"BSTAR":0.00031362475,"MEAN_MOTION_DOT":2.796e-5,"MEAN_MOTION_DDOT":0},{"OBJECT_NAME":"SKYSAT-C1","OBJECT_ID":"2016-040C","EPOCH":"2026-03-03T15:15:55.064736","MEAN_MOTION":15.34362051,"ECCENTRICITY":0.0003961,"INCLINATION":96.9705,"RA_OF_ASC_NODE":100.1375,"ARG_OF_PERICENTER":65.3979,"MEAN_ANOMALY":294.7678,"EPHEMERIS_TYPE":0,"CLASSIFICATION_TYPE":"U","NORAD_CAT_ID":41601,"ELEMENT_SET_NO":999,"REV_AT_EPOCH":54167,"BSTAR":0.00038437,"MEAN_MOTION_DOT":0.00012726,"MEAN_MOTION_DDOT":0},{"OBJECT_NAME":"SKYSAT-C4","OBJECT_ID":"2016-058B","EPOCH":"2026-03-03T22:57:46.593792","MEAN_MOTION":15.45132819,"ECCENTRICITY":8.81e-5,"INCLINATION":96.9287,"RA_OF_ASC_NODE":89.3204,"ARG_OF_PERICENTER":84.0805,"MEAN_ANOMALY":276.0546,"EPHEMERIS_TYPE":0,"CLASSIFICATION_TYPE":"U","NORAD_CAT_ID":41771,"ELEMENT_SET_NO":999,"REV_AT_EPOCH":52920,"BSTAR":0.00047366561,"MEAN_MOTION_DOT":0.00022383,"MEAN_MOTION_DDOT":0},{"OBJECT_NAME":"SKYSAT-C5","OBJECT_ID":"2016-058C","EPOCH":"2026-03-03T16:40:20.789184","MEAN_MOTION":15.34150166,"ECCENTRICITY":0.00018899,"INCLINATION":97.0624,"RA_OF_ASC_NODE":108.0178,"ARG_OF_PERICENTER":85.7555,"MEAN_ANOMALY":274.3905,"EPHEMERIS_TYPE":0,"CLASSIFICATION_TYPE":"U","NORAD_CAT_ID":41772,"ELEMENT_SET_NO":999,"REV_AT_EPOCH":52757,"BSTAR":0.00034741769,"MEAN_MOTION_DOT":0.00011413,"MEAN_MOTION_DDOT":0},{"OBJECT_NAME":"SKYSAT-C2","OBJECT_ID":"2016-058D","EPOCH":"2026-03-03T14:22:19.307712","MEAN_MOTION":15.39503714,"ECCENTRICITY":0.0005303,"INCLINATION":97.0281,"RA_OF_ASC_NODE":88.7915,"ARG_OF_PERICENTER":81.4883,"MEAN_ANOMALY":278.6964,"EPHEMERIS_TYPE":0,"CLASSIFICATION_TYPE":"U","NORAD_CAT_ID":41773,"ELEMENT_SET_NO":999,"REV_AT_EPOCH":52879,"BSTAR":0.00041141,"MEAN_MOTION_DOT":0.00016092,"MEAN_MOTION_DDOT":0},{"OBJECT_NAME":"SKYSAT-C3","OBJECT_ID":"2016-058E","EPOCH":"2026-03-03T14:40:42.861216","MEAN_MOTION":15.47994897,"ECCENTRICITY":0.0001508,"INCLINATION":96.9184,"RA_OF_ASC_NODE":97.7412,"ARG_OF_PERICENTER":101.3682,"MEAN_ANOMALY":258.7739,"EPHEMERIS_TYPE":0,"CLASSIFICATION_TYPE":"U","NORAD_CAT_ID":41774,"ELEMENT_SET_NO":999,"REV_AT_EPOCH":52975,"BSTAR":0.00050606,"MEAN_MOTION_DOT":0.00026407,"MEAN_MOTION_DDOT":0},{"OBJECT_NAME":"SKYSAT-C11","OBJECT_ID":"2017-068A","EPOCH":"2026-03-03T09:34:15.945024","MEAN_MOTION":15.51927516,"ECCENTRICITY":7.525e-5,"INCLINATION":97.4187,"RA_OF_ASC_NODE":207.1776,"ARG_OF_PERICENTER":86.5462,"MEAN_ANOMALY":273.5877,"EPHEMERIS_TYPE":0,"CLASSIFICATION_TYPE":"U","NORAD_CAT_ID":42987,"ELEMENT_SET_NO":999,"REV_AT_EPOCH":46680,"BSTAR":0.00057785189,"MEAN_MOTION_DOT":0.00034675,"MEAN_MOTION_DDOT":0},{"OBJECT_NAME":"SKYSAT-C10","OBJECT_ID":"2017-068B","EPOCH":"2026-03-03T07:59:54.934080","MEAN_MOTION":15.32490656,"ECCENTRICITY":0.00011597,"INCLINATION":97.4325,"RA_OF_ASC_NODE":198.4163,"ARG_OF_PERICENTER":90.6134,"MEAN_ANOMALY":269.524,"EPHEMERIS_TYPE":0,"CLASSIFICATION_TYPE":"U","NORAD_CAT_ID":42988,"ELEMENT_SET_NO":999,"REV_AT_EPOCH":46613,"BSTAR":0.00043641716,"MEAN_MOTION_DOT":0.00013622,"MEAN_MOTION_DDOT":0},{"OBJECT_NAME":"SKYSAT-C9","OBJECT_ID":"2017-068C","EPOCH":"2026-03-03T19:05:25.268640","MEAN_MOTION":15.3865572,"ECCENTRICITY":0.00096828,"INCLINATION":97.4252,"RA_OF_ASC_NODE":198.8673,"ARG_OF_PERICENTER":152.1934,"MEAN_ANOMALY":207.9831,"EPHEMERIS_TYPE":0,"CLASSIFICATION_TYPE":"U","NORAD_CAT_ID":42989,"ELEMENT_SET_NO":999,"REV_AT_EPOCH":46653,"BSTAR":0.00054645762,"MEAN_MOTION_DOT":0.00020845,"MEAN_MOTION_DDOT":0},{"OBJECT_NAME":"SKYSAT-C8","OBJECT_ID":"2017-068D","EPOCH":"2026-03-03T07:49:51.608928","MEAN_MOTION":15.34560506,"ECCENTRICITY":0.00012586,"INCLINATION":97.435,"RA_OF_ASC_NODE":197.8254,"ARG_OF_PERICENTER":113.2685,"MEAN_ANOMALY":246.869,"EPHEMERIS_TYPE":0,"CLASSIFICATION_TYPE":"U","NORAD_CAT_ID":42990,"ELEMENT_SET_NO":999,"REV_AT_EPOCH":46606,"BSTAR":0.00020005058,"MEAN_MOTION_DOT":6.617e-5,"MEAN_MOTION_DDOT":0},{"OBJECT_NAME":"SKYSAT-C7","OBJECT_ID":"2017-068E","EPOCH":"2026-03-03T20:06:29.467584","MEAN_MOTION":15.34530913,"ECCENTRICITY":0.00073829,"INCLINATION":97.4356,"RA_OF_ASC_NODE":199.3239,"ARG_OF_PERICENTER":121.7201,"MEAN_ANOMALY":238.4762,"EPHEMERIS_TYPE":0,"CLASSIFICATION_TYPE":"U","NORAD_CAT_ID":42991,"ELEMENT_SET_NO":999,"REV_AT_EPOCH":46620,"BSTAR":0.00051766764,"MEAN_MOTION_DOT":0.0001727,"MEAN_MOTION_DDOT":0},{"OBJECT_NAME":"SKYSAT-C6","OBJECT_ID":"2017-068F","EPOCH":"2026-03-03T19:49:27.562944","MEAN_MOTION":15.32572793,"ECCENTRICITY":0.00035529,"INCLINATION":97.439,"RA_OF_ASC_NODE":199.6136,"ARG_OF_PERICENTER":126.2728,"MEAN_ANOMALY":233.8842,"EPHEMERIS_TYPE":0,"CLASSIFICATION_TYPE":"U","NORAD_CAT_ID":42992,"ELEMENT_SET_NO":999,"REV_AT_EPOCH":46617,"BSTAR":0.00048993677,"MEAN_MOTION_DOT":0.00015348,"MEAN_MOTION_DDOT":0},{"OBJECT_NAME":"SKYSAT-C12","OBJECT_ID":"2018-099AR","EPOCH":"2026-03-03T14:34:51.647808","MEAN_MOTION":15.45340085,"ECCENTRICITY":0.0004874,"INCLINATION":96.9378,"RA_OF_ASC_NODE":90.2845,"ARG_OF_PERICENTER":154.059,"MEAN_ANOMALY":206.0905,"EPHEMERIS_TYPE":0,"CLASSIFICATION_TYPE":"U","NORAD_CAT_ID":43797,"ELEMENT_SET_NO":999,"REV_AT_EPOCH":40553,"BSTAR":0.00045727,"MEAN_MOTION_DOT":0.00021765,"MEAN_MOTION_DDOT":0},{"OBJECT_NAME":"SKYSAT-C13","OBJECT_ID":"2018-099AW","EPOCH":"2026-03-03T22:49:24.119040","MEAN_MOTION":15.75564682,"ECCENTRICITY":0.00034216,"INCLINATION":96.9415,"RA_OF_ASC_NODE":110.5776,"ARG_OF_PERICENTER":221.6959,"MEAN_ANOMALY":138.4047,"EPHEMERIS_TYPE":0,"CLASSIFICATION_TYPE":"U","NORAD_CAT_ID":43802,"ELEMENT_SET_NO":999,"REV_AT_EPOCH":40626,"BSTAR":0.00067790003,"MEAN_MOTION_DOT":0.00103915,"MEAN_MOTION_DDOT":0},{"OBJECT_NAME":"FLOCK 4Q-16","OBJECT_ID":"2023-174R","EPOCH":"2026-03-03T19:05:25.156320","MEAN_MOTION":15.44404847,"ECCENTRICITY":0.00079238,"INCLINATION":97.3875,"RA_OF_ASC_NODE":148.8271,"ARG_OF_PERICENTER":176.7959,"MEAN_ANOMALY":183.3342,"EPHEMERIS_TYPE":0,"CLASSIFICATION_TYPE":"U","NORAD_CAT_ID":58271,"ELEMENT_SET_NO":999,"REV_AT_EPOCH":12928,"BSTAR":0.00069230481,"MEAN_MOTION_DOT":0.00032022,"MEAN_MOTION_DDOT":0}]
